1 43750U 18096AH  21129.20779802  .00004096  00000-0  13024-3 0  9995
2 43750  97.3907 209.9525 0019897  53.6072 306.7002 15.33001580136335
1 43750U 18096AH  21129.46889208  .00004218  00000-0  13403-3 0  9992
2 43750  97.3908 210.2134 0019870  52.7785 307.5266 15.33004123136370
1 43750U 18096AH  21129.72998612  .00003909  00000-0  12441-3 0  9998
2 43750  97.3908 210.4744 0019842  51.8922 308.4105 15.33005583136419
1 43750U 18096AH  21130.18689933  .00004138  00000-0  13152-3 0  9998
2 43750  97.3908 210.9310 0019799  50.3438 309.9547 15.33009958136483
1 43750U 18096AH  21130.77435790  .00003911  00000-0  12445-3 0  9995
2 43750  97.3908 211.5180 0019749  48.3674 311.9256 15.33014020136575
1 43750U 18096AH  21131.23126824  .00004690  00000-0  14870-3 0  9991
2 43750  97.3907 211.9747 0019711  46.8042 313.4843 15.33019769136640
1 43750U 18096AH  21131.81872347  .00003757  00000-0  11960-3 0  9993
2 43750  97.3906 212.5617 0019649  44.8385 315.4440 15.33022265136730
1 43750U 18096AH  21132.14508658  .00003760  00000-0  11971-3 0  9997
2 43750  97.3905 212.8878 0019617  43.7107 316.5684 15.33024908136789
1 43750U 18096AH  21132.47144902  .00003642  00000-0  11603-3 0  9992
2 43750  97.3905 213.2140 0019579  42.6497 317.6261 15.33027334136838
1 43750U 18096AH  21132.73253836  .00005364  00000-0  16964-3 0  9996
2 43750  97.3905 213.4749 0019554  41.7313 318.5416 15.33033659136878
1 43750U 18096AH  21133.71161708  .00005917  00000-0  18679-3 0  9990
2 43750  97.3903 214.4534 0019455  38.4935 321.7690 15.33045640137023
1 43750U 18096AH  21134.49487350  .00005410  00000-0  17098-3 0  9992
2 43750  97.3901 215.2362 0019379  35.7700 324.4836 15.33055433137140
1 43750U 18096AH  21135.14758319  .00005073  00000-0  16046-3 0  9998
2 43750  97.3900 215.8886 0019305  33.4799 326.7660 15.33064048137241
1 43750U 18096AH  21135.86555975  .00005052  00000-0  15976-3 0  9998
2 43750  97.3899 216.6063 0019247  30.9961 329.2413 15.33073431137354
1 43750U 18096AH  21136.45299227  .00005155  00000-0  16292-3 0  9995
2 43750  97.3898 217.1934 0019208  28.9895 331.2410 15.33080671137440
1 43750U 18096AH  21136.77934249  .00005296  00000-0  16728-3 0  9990
2 43750  97.3897 217.5196 0019171  27.8819 332.3446 15.33085007137490
1 43750U 18096AH  21137.30150048  .00005521  00000-0  17426-3 0  9994
2 43750  97.3897 218.0415 0019120  26.0424 334.1776 15.33092258137578
1 43750U 18096AH  21137.88892565  .00005508  00000-0  17382-3 0  9990
2 43750  97.3896 218.6287 0019037  24.0200 336.1926 15.33099687137669
1 43750U 18096AH  21138.08473331  .00005495  00000-0  17340-3 0  9998
2 43750  97.3895 218.8244 0019017  23.3143 336.8958 15.33102327137690
1 43750U 18096AH  21138.21527131  .00006094  00000-0  19201-3 0  9995
2 43750  97.3895 218.9548 0019001  22.8359 337.3724 15.33105561137717
1 43750U 18096AH  21138.73742199  .00006776  00000-0  21315-3 0  9991
2 43750  97.3894 219.4767 0018952  21.0554 339.1464 15.33115060137791
1 43750U 18096AH  21139.45537436  .00007245  00000-0  22764-3 0  9998
2 43750  97.3895 220.1943 0018880  18.5661 341.6266 15.33127253137905
1 43750U 18096AH  21139.78171495  .00007163  00000-0  22506-3 0  9996
2 43750  97.3896 220.5205 0018853  17.4326 342.7559 15.33132097137951
1 43750U 18096AH  21140.49966033  .00007516  00000-0  23594-3 0  9996
2 43750  97.3896 221.2381 0018768  14.8893 345.2898 15.33143058138065
1 43750U 18096AH  21140.69546266  .00007412  00000-0  23270-3 0  9996
2 43750  97.3897 221.4338 0018748  14.1841 345.9924 15.33146114138090
1 43750U 18096AH  21141.21759943  .00009198  00000-0  28800-3 0  9990
2 43750  97.3898 221.9557 0018701  12.2731 347.8963 15.33157856138173
1 43750U 18096AH  21141.80500013  .00006304  00000-0  19821-3 0  9996
2 43750  97.3898 222.5428 0018643  10.1832 349.9784 15.33163629138260
1 43750U 18096AH  21142.19659879  .00006125  00000-0  19263-3 0  9995
2 43750  97.3899 222.9342 0018607   8.7851 351.3713 15.33169756138327
1 43750U 18096AH  21142.78399440  .00005798  00000-0  18245-3 0  9999
2 43750  97.3901 223.5214 0018541   6.7422 353.4066 15.33177666138418
1 43750U 18096AH  21143.11032428  .00005728  00000-0  18024-3 0  9995
2 43750  97.3901 223.8475 0018498   5.5998 354.5447 15.33181344138464
1 43750U 18096AH  21143.17559012  .00005711  00000-0  17971-3 0  9996
2 43750  97.3901 223.9128 0018499   5.3558 354.7879 15.33182213138479
1 43750U 18096AH  21143.76298165  .00005360  00000-0  16881-3 0  9999
2 43750  97.3902 224.4998 0018433   3.2391 356.8967 15.33188526138565
1 43750U 18096AH  21144.15457475  .00005179  00000-0  16318-3 0  9997
2 43750  97.3902 224.8912 0018396   1.8082 358.3223 15.33192289138624
1 43750U 18096AH  21144.48090149  .00005768  00000-0  18141-3 0  9994
2 43750  97.3902 225.2174 0018374   0.6205 359.5057 15.33196784138676
1 43750U 18096AH  21144.61143186  .00005205  00000-0  16397-3 0  9996
2 43750  97.3902 225.3479 0018357   0.1447 359.9798 15.33197361138699
1 43750U 18096AH  21145.52514296  .00004483  00000-0  14154-3 0  9997
2 43750  97.3904 226.2613 0018246 356.9019   3.2107 15.33204688138835
1 43750U 18096AH  21145.65567273  .00004403  00000-0  13906-3 0  9990
2 43750  97.3905 226.3918 0018230 356.4287   3.6822 15.33205830138850
1 43750U 18096AH  21146.30831865  .00005558  00000-0  17484-3 0  9991
2 43750  97.3904 227.0442 0018171 354.0426   6.0597 15.33215511138956
1 43750U 18096AH  21146.76517126  .00004303  00000-0  13592-3 0  9995
2 43750  97.3904 227.5009 0018123 352.4062   7.6903 15.33215972139023
1 43750U 18096AH  21147.48307755  .00004803  00000-0  15141-3 0  9997
2 43750  97.3903 228.2186 0018051 349.7211  10.3660 15.33224063139135
1 43750U 18096AH  21147.80939558  .00006843  00000-0  21455-3 0  9996
2 43750  97.3902 228.5449 0018027 348.5220  11.5609 15.33233492139186
1 43750U 18096AH  21148.26624034  .00006859  00000-0  21499-3 0  9992
2 43750  97.3901 229.0016 0017969 346.8062  13.2708 15.33239679139250
1 43750U 18096AH  21148.46203035  .00007128  00000-0  22330-3 0  9993
2 43750  97.3900 229.1974 0017946 346.1058  13.9688 15.33242877139287
1 43750U 18096AH  21148.78834589  .00006059  00000-0  19020-3 0  9996
2 43750  97.3899 229.5236 0017897 344.9201  15.1505 15.33246928139339
1 43750U 18096AH  21149.44097469  .00005159  00000-0  16229-3 0  9996
2 43750  97.3897 230.1762 0017831 342.4858  17.5767 15.33254638139432
1 43750U 18096AH  21149.76728807  .00005028  00000-0  15823-3 0  9992
2 43750  97.3897 230.5023 0017797 341.2173  18.8410 15.33258500139480
1 43750U 18096AH  21150.48517514  .00004292  00000-0  13543-3 0  9993
2 43750  97.3895 231.2200 0017728 338.4609  21.5885 15.33264453139592
1 43750U 18096AH  21150.81148650  .00004073  00000-0  12864-3 0  9993
2 43750  97.3895 231.5462 0017695 337.1895  22.8560 15.33267392139646
1 43750U 18096AH  21151.46410762  .00004544  00000-0  14320-3 0  9993
2 43750  97.3895 232.1988 0017636 334.7811  25.2569 15.33274146139744
1 43750U 18096AH  21151.72515587  .00004035  00000-0  12744-3 0  9996
2 43750  97.3895 232.4598 0017607 333.7813  26.2536 15.33275096139787
1 43750U 18096AH  21151.79041785  .00003909  00000-0  12354-3 0  9993
2 43750  97.3895 232.5250 0017604 333.5396  26.4945 15.33275297139794
1 43750U 18096AH  21152.44303596  .00003790  00000-0  11984-3 0  9993
2 43750  97.3895 233.1775 0017552 331.0707  28.9561 15.33280291139896
1 43750U 18096AH  21152.63882094  .00003828  00000-0  12101-3 0  9993
2 43750  97.3894 233.3732 0017528 330.3348  29.6899 15.33282020139924
1 43750U 18096AH  21153.03039083  .00004191  00000-0  13224-3 0  9991
2 43750  97.3894 233.7647 0017488 328.8489  31.1715 15.33285371139989
1 43750U 18096AH  21153.48722105  .00004277  00000-0  13488-3 0  9991
2 43750  97.3895 234.2214 0017459 327.1213  32.8942 15.33289090140053
1 43750U 18096AH  21154.13983453  .00003633  00000-0  11495-3 0  9990
2 43750  97.3895 234.8739 0017410 324.6159  35.3927 15.33292187140152
1 43750U 18096AH  21154.46614001  .00004118  00000-0  12993-3 0  9999
2 43750  97.3896 235.2001 0017370 323.3505  36.6548 15.33295899140208
1 43750U 18096AH  21155.18401012  .00004427  00000-0  13948-3 0  9999
2 43750  97.3897 235.9177 0017319 320.6207  39.3775 15.33302685140318
1 43750U 18096AH  21155.64083478  .00004692  00000-0  14764-3 0  9993
2 43750  97.3898 236.3744 0017277 318.8792  41.1147 15.33307441140381
1 43750U 18096AH  21156.29343934  .00004823  00000-0  15168-3 0  9996
2 43750  97.3899 237.0268 0017245 316.3485  43.6392 15.33313750140488
1 43750U 18096AH  21156.48922012  .00004951  00000-0  15562-3 0  9997
2 43750  97.3900 237.2225 0017230 315.5961  44.3899 15.33315927140512
1 43750U 18096AH  21156.81552114  .00004684  00000-0  14734-3 0  9999
2 43750  97.3900 237.5487 0017211 314.3365  45.6466 15.33318435140565
1 43750U 18096AH  21157.46812050  .00005141  00000-0  16143-3 0  9994
2 43750  97.3902 238.2011 0017171 311.7621  48.2152 15.33326069140663
1 43750U 18096AH  21157.79441924  .00005172  00000-0  16237-3 0  9996
2 43750  97.3902 238.5273 0017160 310.5091  49.4656 15.33329503140716
1 43750U 18096AH  21158.44701459  .00004182  00000-0  13179-3 0  9993
2 43750  97.3904 239.1797 0017123 307.9808  51.9888 15.33333837140812
1 43750U 18096AH  21158.77331095  .00004499  00000-0  14155-3 0  9990
2 43750  97.3904 239.5060 0017114 306.7119  53.2551 15.33338119140866
1 43750U 18096AH  21159.49115940  .00006410  00000-0  20050-3 0  9995
2 43750  97.3904 240.2237 0017094 303.9406  56.0211 15.33350657140973
1 43750U 18096AH  21159.81745325  .00005759  00000-0  18039-3 0  9996
2 43750  97.3904 240.5499 0017090 302.5859  57.3733 15.33353243141023
1 43750U 18096AH  21160.14374593  .00005574  00000-0  17466-3 0  9997
2 43750  97.3904 240.8762 0017080 301.3302  58.6268 15.33357116141073
1 43750U 18096AH  21160.47003774  .00005713  00000-0  17893-3 0  9992
2 43750  97.3904 241.2024 0017066 300.0862  59.8687 15.33361475141127
1 43750U 18096AH  21160.79632884  .00005369  00000-0  16829-3 0  9992
2 43750  97.3905 241.5286 0017056 298.8235  61.1295 15.33365055141172
